CCSDS_OMM_VERS = 2.0
CREATION_DATE  = 
ORIGINATOR     = 

OBJECT_NAME    = SDA_1676
OBJECT_ID      = 2025-230N
CENTER_NAME    = EARTH
REF_FRAME      = TEME
TIME_SYSTEM    = UTC
MEAN_ELEMENT_THEORY = SGP/SGP4

EPOCH          = 2025-11-01T15:02:27.869280
MEAN_MOTION    = 13.84574380
ECCENTRICITY   = .00028892
INCLINATION    = 81.3020
RA_OF_ASC_NODE = 62.7456
ARG_OF_PERICENTER = 62.4208
MEAN_ANOMALY   = 297.7242

EPHEMERIS_TYPE = 0
CLASSIFICATION_TYPE = U
NORAD_CAT_ID   = 65986
ELEMENT_SET_NO = 999
REV_AT_EPOCH   = 231
BSTAR          = .24321316E-3
MEAN_MOTION_DOT = .285E-5
MEAN_MOTION_DDOT = 0

CCSDS_OMM_VERS = 2.0
CREATION_DATE  = 
ORIGINATOR     = 

OBJECT_NAME    = SDA_1677
OBJECT_ID      = 2025-230P
CENTER_NAME    = EARTH
REF_FRAME      = TEME
TIME_SYSTEM    = UTC
MEAN_ELEMENT_THEORY = SGP/SGP4

EPOCH          = 2025-11-01T15:00:58.828032
MEAN_MOTION    = 13.84659712
ECCENTRICITY   = .00032286
INCLINATION    = 81.2993
RA_OF_ASC_NODE = 62.7407
ARG_OF_PERICENTER = 67.2575
MEAN_ANOMALY   = 292.8923

EPHEMERIS_TYPE = 0
CLASSIFICATION_TYPE = U
NORAD_CAT_ID   = 65987
ELEMENT_SET_NO = 999
REV_AT_EPOCH   = 231
BSTAR          = .2667848E-3
MEAN_MOTION_DOT = .312E-5
MEAN_MOTION_DDOT = 0

CCSDS_OMM_VERS = 2.0
CREATION_DATE  = 
ORIGINATOR     = 

OBJECT_NAME    = SDA_1678
OBJECT_ID      = 2025-230Q
CENTER_NAME    = EARTH
REF_FRAME      = TEME
TIME_SYSTEM    = UTC
MEAN_ELEMENT_THEORY = SGP/SGP4

EPOCH          = 2025-11-01T14:46:19.430688
MEAN_MOTION    = 13.85509328
ECCENTRICITY   = .00049906
INCLINATION    = 81.3025
RA_OF_ASC_NODE = 62.7347
ARG_OF_PERICENTER = 116.5050
MEAN_ANOMALY   = 243.6620

EPHEMERIS_TYPE = 0
CLASSIFICATION_TYPE = U
NORAD_CAT_ID   = 65988
ELEMENT_SET_NO = 999
REV_AT_EPOCH   = 231
BSTAR          = .21580354E-3
MEAN_MOTION_DOT = .258E-5
MEAN_MOTION_DDOT = 0

CCSDS_OMM_VERS = 2.0
CREATION_DATE  = 
ORIGINATOR     = 

OBJECT_NAME    = SDA_1679
OBJECT_ID      = 2025-230R
CENTER_NAME    = EARTH
REF_FRAME      = TEME
TIME_SYSTEM    = UTC
MEAN_ELEMENT_THEORY = SGP/SGP4

EPOCH          = 2025-11-01T14:49:47.964864
MEAN_MOTION    = 13.85308584
ECCENTRICITY   = .00051373
INCLINATION    = 81.3023
RA_OF_ASC_NODE = 62.7384
ARG_OF_PERICENTER = 105.3074
MEAN_ANOMALY   = 254.8651

EPHEMERIS_TYPE = 0
CLASSIFICATION_TYPE = U
NORAD_CAT_ID   = 65989
ELEMENT_SET_NO = 999
REV_AT_EPOCH   = 231
BSTAR          = .24351702E-3
MEAN_MOTION_DOT = .289E-5
MEAN_MOTION_DDOT = 0

CCSDS_OMM_VERS = 2.0
CREATION_DATE  = 
ORIGINATOR     = 

OBJECT_NAME    = SDA_1680
OBJECT_ID      = 2025-230S
CENTER_NAME    = EARTH
REF_FRAME      = TEME
TIME_SYSTEM    = UTC
MEAN_ELEMENT_THEORY = SGP/SGP4

EPOCH          = 2025-11-01T14:51:53.824608
MEAN_MOTION    = 13.85186593
ECCENTRICITY   = .00050326
INCLINATION    = 81.3014
RA_OF_ASC_NODE = 62.7352
ARG_OF_PERICENTER = 98.5569
MEAN_ANOMALY   = 261.6158

EPHEMERIS_TYPE = 0
CLASSIFICATION_TYPE = U
NORAD_CAT_ID   = 65990
ELEMENT_SET_NO = 999
REV_AT_EPOCH   = 231
BSTAR          = .28613069E-3
MEAN_MOTION_DOT = .336E-5
MEAN_MOTION_DDOT = 0

CCSDS_OMM_VERS = 2.0
CREATION_DATE  = 
ORIGINATOR     = 

OBJECT_NAME    = SDA_1681
OBJECT_ID      = 2025-230T
CENTER_NAME    = EARTH
REF_FRAME      = TEME
TIME_SYSTEM    = UTC
MEAN_ELEMENT_THEORY = SGP/SGP4

EPOCH          = 2025-11-01T14:50:30.879744
MEAN_MOTION    = 13.85266245
ECCENTRICITY   = .00051164
INCLINATION    = 81.3013
RA_OF_ASC_NODE = 62.7323
ARG_OF_PERICENTER = 103.0083
MEAN_ANOMALY   = 257.1646

EPHEMERIS_TYPE = 0
CLASSIFICATION_TYPE = U
NORAD_CAT_ID   = 65991
ELEMENT_SET_NO = 999
REV_AT_EPOCH   = 231
BSTAR          = .23742962E-3
MEAN_MOTION_DOT = .281E-5
MEAN_MOTION_DDOT = 0

CCSDS_OMM_VERS = 2.0
CREATION_DATE  = 
ORIGINATOR     = 

OBJECT_NAME    = SDA_1682
OBJECT_ID      = 2025-230U
CENTER_NAME    = EARTH
REF_FRAME      = TEME
TIME_SYSTEM    = UTC
MEAN_ELEMENT_THEORY = SGP/SGP4

EPOCH          = 2025-11-01T14:58:01.177536
MEAN_MOTION    = 13.84831538
ECCENTRICITY   = .0003791
INCLINATION    = 81.3040
RA_OF_ASC_NODE = 62.7456
ARG_OF_PERICENTER = 77.0792
MEAN_ANOMALY   = 283.0788

EPHEMERIS_TYPE = 0
CLASSIFICATION_TYPE = U
NORAD_CAT_ID   = 65992
ELEMENT_SET_NO = 999
REV_AT_EPOCH   = 231
BSTAR          = .25107108E-3
MEAN_MOTION_DOT = .295E-5
MEAN_MOTION_DDOT = 0

CCSDS_OMM_VERS = 2.0
CREATION_DATE  = 
ORIGINATOR     = 

OBJECT_NAME    = SDA_1683
OBJECT_ID      = 2025-230V
CENTER_NAME    = EARTH
REF_FRAME      = TEME
TIME_SYSTEM    = UTC
MEAN_ELEMENT_THEORY = SGP/SGP4

EPOCH          = 2025-11-01T14:56:38.045184
MEAN_MOTION    = 13.84911635
ECCENTRICITY   = .00041218
INCLINATION    = 81.3030
RA_OF_ASC_NODE = 62.7423
ARG_OF_PERICENTER = 80.0295
MEAN_ANOMALY   = 280.1327

EPHEMERIS_TYPE = 0
CLASSIFICATION_TYPE = U
NORAD_CAT_ID   = 65993
ELEMENT_SET_NO = 999
REV_AT_EPOCH   = 231
BSTAR          = .26082106E-3
MEAN_MOTION_DOT = .306E-5
MEAN_MOTION_DDOT = 0

CCSDS_OMM_VERS = 2.0
CREATION_DATE  = 
ORIGINATOR     = 

OBJECT_NAME    = SDA_1684
OBJECT_ID      = 2025-230W
CENTER_NAME    = EARTH
REF_FRAME      = TEME
TIME_SYSTEM    = UTC
MEAN_ELEMENT_THEORY = SGP/SGP4

EPOCH          = 2025-11-01T13:15:05.258016
MEAN_MOTION    = 13.84767221
ECCENTRICITY   = .00039102
INCLINATION    = 81.3013
RA_OF_ASC_NODE = 62.8090
ARG_OF_PERICENTER = 67.3115
MEAN_ANOMALY   = 292.8455

EPHEMERIS_TYPE = 0
CLASSIFICATION_TYPE = U
NORAD_CAT_ID   = 65994
ELEMENT_SET_NO = 999
REV_AT_EPOCH   = 230
BSTAR          = .19859764E-3
MEAN_MOTION_DOT = .235E-5
MEAN_MOTION_DDOT = 0

CCSDS_OMM_VERS = 2.0
CREATION_DATE  = 
ORIGINATOR     = 

OBJECT_NAME    = HULIANWANG DIGUI 12A
OBJECT_ID      = 2025-231A
CENTER_NAME    = EARTH
REF_FRAME      = TEME
TIME_SYSTEM    = UTC
MEAN_ELEMENT_THEORY = SGP/SGP4

EPOCH          = 2025-11-01T14:43:28.267104
MEAN_MOTION    = 14.03847496
ECCENTRICITY   = .00064571
INCLINATION    = 50.0005
RA_OF_ASC_NODE = 290.3301
ARG_OF_PERICENTER = 310.9223
MEAN_ANOMALY   = 49.1122

EPHEMERIS_TYPE = 0
CLASSIFICATION_TYPE = U
NORAD_CAT_ID   = 65995
ELEMENT_SET_NO = 999
REV_AT_EPOCH   = 233
BSTAR          = .13861057E-3
MEAN_MOTION_DOT = .68E-6
MEAN_MOTION_DDOT = 0

CCSDS_OMM_VERS = 2.0
CREATION_DATE  = 
ORIGINATOR     = 

OBJECT_NAME    = HULIANWANG DIGUI 12B
OBJECT_ID      = 2025-231B
CENTER_NAME    = EARTH
REF_FRAME      = TEME
TIME_SYSTEM    = UTC
MEAN_ELEMENT_THEORY = SGP/SGP4

EPOCH          = 2025-11-01T14:47:32.456832
MEAN_MOTION    = 14.03878458
ECCENTRICITY   = .00090257
INCLINATION    = 49.9994
RA_OF_ASC_NODE = 290.3436
ARG_OF_PERICENTER = 316.2747
MEAN_ANOMALY   = 43.7442

EPHEMERIS_TYPE = 0
CLASSIFICATION_TYPE = U
NORAD_CAT_ID   = 65996
ELEMENT_SET_NO = 999
REV_AT_EPOCH   = 233
BSTAR          = .13498472E-3
MEAN_MOTION_DOT = .63E-6
MEAN_MOTION_DDOT = 0

CCSDS_OMM_VERS = 2.0
CREATION_DATE  = 
ORIGINATOR     = 

OBJECT_NAME    = HULIANWANG DIGUI 12C
OBJECT_ID      = 2025-231C
CENTER_NAME    = EARTH
REF_FRAME      = TEME
TIME_SYSTEM    = UTC
MEAN_ELEMENT_THEORY = SGP/SGP4

EPOCH          = 2025-11-01T12:59:22.783488
MEAN_MOTION    = 14.03881991
ECCENTRICITY   = .00075729
INCLINATION    = 49.9970
RA_OF_ASC_NODE = 290.6077
ARG_OF_PERICENTER = 315.4637
MEAN_ANOMALY   = 44.5658

EPHEMERIS_TYPE = 0
CLASSIFICATION_TYPE = U
NORAD_CAT_ID   = 65997
ELEMENT_SET_NO = 999
REV_AT_EPOCH   = 232
BSTAR          = .13900387E-3
MEAN_MOTION_DOT = .69E-6
MEAN_MOTION_DDOT = 0

