SDA_1676                
1 65986U 25230N   25305.62671145  .00000285  00000+0  24321-3 0  9992
2 65986  81.3020  62.7456 0002889  62.4208 297.7242 13.84574380  2311
SDA_1677                
1 65987U 25230P   25305.62568088  .00000312  00000+0  26678-3 0  9992
2 65987  81.2993  62.7407 0003228  67.2575 292.8923 13.84659712  2319
SDA_1678                
1 65988U 25230Q   25305.61550267  .00000258  00000+0  21580-3 0  9998
2 65988  81.3025  62.7347 0004990 116.5050 243.6620 13.85509328  2319
SDA_1679                
1 65989U 25230R   25305.61791626  .00000289  00000+0  24352-3 0  9999
2 65989  81.3023  62.7384 0005137 105.3074 254.8651 13.85308584  2314
SDA_1680                
1 65990U 25230S   25305.61937297  .00000336  00000+0  28613-3 0  9994
2 65990  81.3014  62.7352 0005032  98.5569 261.6158 13.85186593  2319
SDA_1681                
1 65991U 25230T   25305.61841296  .00000281  00000+0  23743-3 0  9996
2 65991  81.3013  62.7323 0005116 103.0083 257.1646 13.85266245  2318
SDA_1682                
1 65992U 25230U   25305.62362474  .00000295  00000+0  25107-3 0  9995
2 65992  81.3040  62.7456 0003791  77.0792 283.0788 13.84831538  2317
SDA_1683                
1 65993U 25230V   25305.62266256  .00000306  00000+0  26082-3 0  9993
2 65993  81.3030  62.7423 0004121  80.0295 280.1327 13.84911635  2315
SDA_1684                
1 65994U 25230W   25305.55214419  .00000235  00000+0  19860-3 0  9997
2 65994  81.3013  62.8090 0003910  67.3115 292.8455 13.84767221  2303
HULIANWANG DIGUI 12A    
1 65995U 25231A   25305.61352161  .00000068  00000+0  13861-3 0  9992
2 65995  50.0005 290.3301 0006457 310.9223  49.1122 14.03847496  2339
HULIANWANG DIGUI 12B    
1 65996U 25231B   25305.61634788  .00000063  00000+0  13498-3 0  9992
2 65996  49.9994 290.3436 0009025 316.2747  43.7442 14.03878458  2334
HULIANWANG DIGUI 12C    
1 65997U 25231C   25305.54123592  .00000069  00000+0  13900-3 0  9995
2 65997  49.9970 290.6077 0007572 315.4637  44.5658 14.03881991  2320
